{
  "type": "FeatureCollection",
  "features": [
    {
      "type": "Feature",
      "properties": {
        "norad_id": 36049,
        "name": "COSMOS 2251 DEB",
        "group": "cosmos-2251-debris",
        "lat": 51.52694101208346,
        "lon": -109.84960264478143,
        "alt_km": 676.4641457644975,
        "timestamp": "2025-12-27T07:26:25.617627+00:00",
        "meta_object_name": "COSMOS 2251 DEB",
        "meta_object_id": "1993-036AXL",
        "meta_epoch": "2025-12-26T16:05:29.446944",
        "meta_mean_motion": 14.62322708,
        "meta_eccentricity": 0.00097717,
        "meta_inclination": 74.0312,
        "meta_ra_of_asc_node": 92.4958,
        "meta_arg_of_pericenter": 180.7099,
        "meta_mean_anomaly": 179.4056,
        "meta_ephemeris_type": 0,
        "meta_classification_type": "U",
        "meta_norad_cat_id": 36049,
        "meta_element_set_no": 999,
        "meta_rev_at_epoch": 85568,
        "meta_bstar": 0.0013628703,
        "meta_mean_motion_dot": 6.864e-05,
        "meta_mean_motion_ddot": 0,
        "tle_line1": "1 36049U 93036AXL 25360.67047971  .00006864  00000+0  13629-2 0  9996",
        "tle_line2": "2 36049  74.0312  92.4958 0009771 180.7099 179.4056 14.62322708855685"
      },
      "geometry": {
        "type": "Point",
        "coordinates": [
          -109.84960264478143,
          51.52694101208346
        ]
      }
    },
    {
      "type": "Feature",
      "properties": {
        "norad_id": 36050,
        "name": "COSMOS 2251 DEB",
        "group": "cosmos-2251-debris",
        "lat": 68.25332342680127,
        "lon": -149.76817242110255,
        "alt_km": 615.3373165846306,
        "timestamp": "2025-12-27T07:26:25.617637+00:00",
        "meta_object_name": "COSMOS 2251 DEB",
        "meta_object_id": "1993-036AXM",
        "meta_epoch": "2025-12-23T18:20:06.375552",
        "meta_mean_motion": 15.01191833,
        "meta_eccentricity": 0.00883826,
        "meta_inclination": 74.0302,
        "meta_ra_of_asc_node": 171.57,
        "meta_arg_of_pericenter": 248.7055,
        "meta_mean_anomaly": 110.468,
        "meta_ephemeris_type": 0,
        "meta_classification_type": "U",
        "meta_norad_cat_id": 36050,
        "meta_element_set_no": 999,
        "meta_rev_at_epoch": 67200,
        "meta_bstar": 0.00066513085,
        "meta_mean_motion_dot": 9.246e-05,
        "meta_mean_motion_ddot": 0,
        "tle_line1": "1 36050U 93036AXM 25357.76396268  .00009246  00000+0  66513-3 0  9998",
        "tle_line2": "2 36050  74.0302 171.5700 0088382 248.7055 110.4680 15.01191833672000"
      },
      "geometry": {
        "type": "Point",
        "coordinates": [
          -149.76817242110255,
          68.25332342680127
        ]
      }
    },
    {
      "type": "Feature",
      "properties": {
        "norad_id": 36053,
        "name": "COSMOS 2251 DEB",
        "group": "cosmos-2251-debris",
        "lat": -22.847174525246647,
        "lon": -48.270789690139644,
        "alt_km": 722.9697559554688,
        "timestamp": "2025-12-27T07:26:25.617647+00:00",
        "meta_object_name": "COSMOS 2251 DEB",
        "meta_object_id": "1993-036AXQ",
        "meta_epoch": "2025-12-26T00:51:23.527872",
        "meta_mean_motion": 14.57338547,
        "meta_eccentricity": 0.00324806,
        "meta_inclination": 73.8704,
        "meta_ra_of_asc_node": 127.1707,
        "meta_arg_of_pericenter": 71.5947,
        "meta_mean_anomaly": 288.8743,
        "meta_ephemeris_type": 0,
        "meta_classification_type": "U",
        "meta_norad_cat_id": 36053,
        "meta_element_set_no": 999,
        "meta_rev_at_epoch": 87638,
        "meta_bstar": 0.0014377554,
        "meta_mean_motion_dot": 6.535e-05,
        "meta_mean_motion_ddot": 0,
        "tle_line1": "1 36053U 93036AXQ 25360.03568898  .00006535  00000+0  14378-2 0  9994",
        "tle_line2": "2 36053  73.8704 127.1707 0032480  71.5947 288.8743 14.57338547876382"
      },
      "geometry": {
        "type": "Point",
        "coordinates": [
          -48.270789690139644,
          -22.847174525246647
        ]
      }
    },
    {
      "type": "Feature",
      "properties": {
        "norad_id": 36058,
        "name": "COSMOS 2251 DEB",
        "group": "cosmos-2251-debris",
        "lat": 43.19190079250043,
        "lon": 21.296864914875282,
        "alt_km": 693.548281540121,
        "timestamp": "2025-12-27T07:26:25.617657+00:00",
        "meta_object_name": "COSMOS 2251 DEB",
        "meta_object_id": "1993-036AXV",
        "meta_epoch": "2025-12-20T18:52:04.818432",
        "meta_mean_motion": 14.58726339,
        "meta_eccentricity": 0.00440828,
        "meta_inclination": 74.0229,
        "meta_ra_of_asc_node": 18.1226,
        "meta_arg_of_pericenter": 150.2394,
        "meta_mean_anomaly": 210.1292,
        "meta_ephemeris_type": 0,
        "meta_classification_type": "U",
        "meta_norad_cat_id": 36058,
        "meta_element_set_no": 999,
        "meta_rev_at_epoch": 66228,
        "meta_bstar": 0.0002931852,
        "meta_mean_motion_dot": 1.357e-05,
        "meta_mean_motion_ddot": 0,
        "tle_line1": "1 36058U 93036AXV 25354.78616688  .00001357  00000+0  29319-3 0  9994",
        "tle_line2": "2 36058  74.0229  18.1226 0044082 150.2394 210.1292 14.58726339662289"
      },
      "geometry": {
        "type": "Point",
        "coordinates": [
          21.296864914875282,
          43.19190079250043
        ]
      }
    },
    {
      "type": "Feature",
      "properties": {
        "norad_id": 36060,
        "name": "COSMOS 2251 DEB",
        "group": "cosmos-2251-debris",
        "lat": 25.744581336945927,
        "lon": 19.607276497378272,
        "alt_km": 760.2578196920449,
        "timestamp": "2025-12-27T07:26:25.617667+00:00",
        "meta_object_name": "COSMOS 2251 DEB",
        "meta_object_id": "1993-036AXX",
        "meta_epoch": "2025-12-26T20:44:31.560288",
        "meta_mean_motion": 14.42028331,
        "meta_eccentricity": 0.00156628,
        "meta_inclination": 74.0274,
        "meta_ra_of_asc_node": 208.3726,
        "meta_arg_of_pericenter": 303.9859,
        "meta_mean_anomaly": 55.9808,
        "meta_ephemeris_type": 0,
        "meta_classification_type": "U",
        "meta_norad_cat_id": 36060,
        "meta_element_set_no": 999,
        "meta_rev_at_epoch": 85213,
        "meta_bstar": 0.00030100032,
        "meta_mean_motion_dot": 9.63e-06,
        "meta_mean_motion_ddot": 0,
        "tle_line1": "1 36060U 93036AXX 25360.86425417  .00000963  00000+0  30100-3 0  9993",
        "tle_line2": "2 36060  74.0274 208.3726 0015662 303.9859  55.9808 14.42028331852138"
      },
      "geometry": {
        "type": "Point",
        "coordinates": [
          19.607276497378272,
          25.744581336945927
        ]
      }
    },
    {
      "type": "Feature",
      "properties": {
        "norad_id": 36061,
        "name": "COSMOS 2251 DEB",
        "group": "cosmos-2251-debris",
        "lat": -71.10312990651428,
        "lon": -150.10537455727544,
        "alt_km": 810.5616579145644,
        "timestamp": "2025-12-27T07:26:25.617704+00:00",
        "meta_object_name": "COSMOS 2251 DEB",
        "meta_object_id": "1993-036AXY",
        "meta_epoch": "2025-12-26T05:06:50.997600",
        "meta_mean_motion": 14.33730546,
        "meta_eccentricity": 0.0036999,
        "meta_inclination": 74.0257,
        "meta_ra_of_asc_node": 335.0992,
        "meta_arg_of_pericenter": 58.9018,
        "meta_mean_anomaly": 301.5755,
        "meta_ephemeris_type": 0,
        "meta_classification_type": "U",
        "meta_norad_cat_id": 36061,
        "meta_element_set_no": 999,
        "meta_rev_at_epoch": 65297,
        "meta_bstar": 0.00033912,
        "meta_mean_motion_dot": 9.23e-06,
        "meta_mean_motion_ddot": 0,
        "tle_line1": "1 36061U 93036AXY 25360.21309025  .00000923  00000+0  33912-3 0  9999",
        "tle_line2": "2 36061  74.0257 335.0992 0036999  58.9018 301.5755 14.33730546652972"
      },
      "geometry": {
        "type": "Point",
        "coordinates": [
          -150.10537455727544,
          -71.10312990651428
        ]
      }
    },
    {
      "type": "Feature",
      "properties": {
        "norad_id": 36073,
        "name": "COSMOS 2251 DEB",
        "group": "cosmos-2251-debris",
        "lat": 57.75160655990663,
        "lon": -37.155361025752626,
        "alt_km": 761.0238193295672,
        "timestamp": "2025-12-27T07:26:25.617715+00:00",
        "meta_object_name": "COSMOS 2251 DEB",
        "meta_object_id": "1993-036AYL",
        "meta_epoch": "2025-12-18T03:58:06.481920",
        "meta_mean_motion": 14.34959898,
        "meta_eccentricity": 0.00240895,
        "meta_inclination": 74.0326,
        "meta_ra_of_asc_node": 312.6126,
        "meta_arg_of_pericenter": 19.0207,
        "meta_mean_anomaly": 341.1839,
        "meta_ephemeris_type": 0,
        "meta_classification_type": "U",
        "meta_norad_cat_id": 36073,
        "meta_element_set_no": 999,
        "meta_rev_at_epoch": 70285,
        "meta_bstar": 0.0001893667,
        "meta_mean_motion_dot": 5.14e-06,
        "meta_mean_motion_ddot": 0,
        "tle_line1": "1 36073U 93036AYL 25352.16535280  .00000514  00000+0  18937-3 0  9997",
        "tle_line2": "2 36073  74.0326 312.6126 0024089  19.0207 341.1839 14.34959898702857"
      },
      "geometry": {
        "type": "Point",
        "coordinates": [
          -37.155361025752626,
          57.75160655990663
        ]
      }
    }
  ]
}